SAPPHIRE                
1 39088U 13009C   26060.45115303  .00000201  00000+0  85081-4 0  9995
2 39088  98.4214 242.4758 0010713 204.5970 155.4706 14.35204470681125
PRAETORIAN SDA_602      
1 65565U 25203A   26059.10380805  .00000089  00000+0  68821-4 0  9991
2 65565  81.3011 111.8204 0007112 125.7196 234.4624 13.84415000 23604
PRAETORIAN SDA_603      
1 65566U 25203B   26058.08408303  .00000030  00000+0  16021-4 0  9993
2 65566  81.3019 112.6027 0010595 129.1571 231.0529 13.84023746 23473
PRAETORIAN SDA_604      
1 65567U 25203C   26060.49496987 -.00000026  00000+0 -34847-4 0  9990
2 65567  81.3030 110.6174 0006635 127.3272 232.8489 13.83033033 23794
PRAETORIAN SDA_605      
1 65568U 25203D   26056.51543851  .00000057  00000+0  40915-4 0  9997
2 65568  81.3003 114.0734 0009697 130.9582 229.2415 13.83681084 23255
PRAETORIAN SDA_606      
1 65569U 25203E   26058.16436730  .00000690  00000+0  61502-3 0  9995
2 65569  81.3066 112.7368 0006384 121.6785 238.4995 13.83530753 23470
PRAETORIAN SDA_607      
1 65570U 25203F   26059.10649532  .00000165  00000+0  13634-3 0  9998
2 65570  81.3023 111.6875 0010029 125.1008 235.1090 13.84463951 23616
PRAETORIAN SDA_608      
1 65571U 25203G   26060.49111428  .00000066  00000+0  48700-4 0  9994
2 65571  81.2986 110.5192 0007109 126.8924 233.2885 13.83885772 23792
PRAETORIAN SDA_609      
1 65572U 25203H   26059.08531229 -.00000028  00000+0 -35898-4 0  9997
2 65572  81.3027 111.8298 0007980 124.9364 235.2543 13.84362074 23604
PRAETORIAN SDA_610      
1 65573U 25203J   26060.47568678  .00000092  00000+0  72274-4 0  9999
2 65573  81.2986 110.5004 0007767 122.5568 237.6339 13.84010141 23796
PRAETORIAN SDA_611      
1 65574U 25203K   26058.25929652  .00000348  00000+0  30546-3 0  9995
2 65574  81.2997 112.6169 0006691 136.1851 223.9837 13.83409701 23485
PRAETORIAN SDA_612      
1 65575U 25203L   26058.53068634 -.00002809  00000+0 -24945-2 0  9992
2 65575  81.3012 112.2222 0010325 124.7837 235.4294 13.85049011 23534
PRAETORIAN SDA_613      
1 65576U 25203M   26058.16242691 -.00003960  00000+0 -36358-2 0  9999
2 65576  81.2993 112.6445 0007217 129.6230 230.5564 13.83057193 23477
PRAETORIAN SDA_614      
1 65577U 25203N   26059.14942470 -.00000592  00000+0 -53679-3 0  9995
2 65577  81.2997 111.6977 0008294 123.9782 236.2165 13.84787602 23629
PRAETORIAN SDA_615      
1 65578U 25203P   26058.08755434  .00001742  00000+0  15436-2 0  9994
2 65578  81.3020 112.5780 0010238 127.5168 232.6921 13.84506019 23473
PRAETORIAN SDA_616      
1 65579U 25203Q   26058.40320216 -.00003786  00000+0 -34599-2 0  9990
2 65579  81.3068 112.5673 0006625 121.5261 238.6543 13.83339273 23505
PRAETORIAN SDA_617      
1 65580U 25203R   26060.51302338  .00000045  00000+0  30202-4 0  9994
2 65580  81.3015 110.4532 0008661 120.8280 239.3729 13.83190296 23802
PRAETORIAN SDA_618      
1 65581U 25203S   26058.07920567  .00003297  00000+0  29125-2 0  9995
2 65581  81.3032 112.5730 0010710 128.6147 231.5971 13.84850238 23477
PRAETORIAN SDA_619      
1 65582U 25203T   26058.12101544 -.00000376  00000+0 -34922-3 0  9997
2 65582  81.3036 112.6612 0009110 125.1965 235.0046 13.83951344 24106
PRAETORIAN SDA_620      
1 65583U 25203U   26059.28530785  .00000072  00000+0  54652-4 0  9993
2 65583  81.3010 111.5760 0008884 123.1526 237.0484 13.83758770 23632
PRAETORIAN SDA_621      
1 65584U 25203V   26059.26990449  .00000075  00000+0  57027-4 0  9991
2 65584  81.3001 111.5418 0008749 121.1871 239.0144 13.83891059 23637
PRAETORIAN SDA_601      
1 65585U 25203W   26058.48407530 -.00000056  00000+0 -61257-4 0  9990
2 65585  81.3012 112.4758 0006241 133.5021 226.6655 13.83589135 23511
